[{"OBJECT_NAME":"HERMES-3","OBJECT_ID":"2025-052BR","EPOCH":"2026-03-09T22:30:01.073952","MEAN_MOTION":15.30039786,"ECCENTRICITY":0.00079928,"INCLINATION":97.3987,"RA_OF_ASC_NODE":324.6131,"ARG_OF_PERICENTER":112.9583,"MEAN_ANOMALY":247.2502,"EPHEMERIS_TYPE":0,"CLASSIFICATION_TYPE":"U","NORAD_CAT_ID":63835,"ELEMENT_SET_NO":999,"REV_AT_EPOCH":5486,"BSTAR":0.0006995793,"MEAN_MOTION_DOT":0.00020316,"MEAN_MOTION_DDOT":0},{"OBJECT_NAME":"STARLINK-33776","OBJECT_ID":"2025-093R","EPOCH":"2026-03-09T10:08:58.061472","MEAN_MOTION":15.27618549,"ECCENTRICITY":0.00020593,"INCLINATION":43.0043,"RA_OF_ASC_NODE":79.2097,"ARG_OF_PERICENTER":260.6442,"MEAN_ANOMALY":99.4177,"EPHEMERIS_TYPE":0,"CLASSIFICATION_TYPE":"U","NORAD_CAT_ID":63851,"ELEMENT_SET_NO":999,"REV_AT_EPOCH":4792,"BSTAR":0.0014489719,"MEAN_MOTION_DOT":0.00039874,"MEAN_MOTION_DDOT":0}]
